start=new Date('2022-11-16T00:00:00.000Z').valueOf();
sats=[{"EPHEMERIS_TYPE":"0","CLASSIFICATION_TYPE":"U","INCLINATION":"70.0042","MEAN_ELEMENT_THEORY":"SGP4","TLE_LINE1":"1 49155U 21082AB  22319.80479420  .00005505  00000-0  46871-3 0  9992","ECCENTRICITY":"0.00043590","ARG_OF_PERICENTER":"246.9364","SEMIMAJOR_AXIS":"6950.173","MEAN_MOTION":"14.98336400","MEAN_MOTION_DDOT":"0.0000000000000","PERIOD":"96.107","OBJECT_ID":"2021-082AB","OBJECT_NAME":"STARLINK-3060","RCS_SIZE":"LARGE","LAUNCH_DATE":"2021-09-14","BSTAR":"0.00046871000000","EPOCH":"2022-11-15T19:18:54.218880","MEAN_ANOMALY":"113.1335","NORAD_CAT_ID":"49155","DECAY_DATE":null,"REV_AT_EPOCH":"6681","SITE":"AFWTR","RA_OF_ASC_NODE":"65.0028","TLE_LINE2":"2 49155  70.0042  65.0028 0004359 246.9364 113.1335 14.98336400 66811","FILE":"3657961","TIME_SYSTEM":"UTC","REF_FRAME":"TEME","APOAPSIS":"575.068","PERIAPSIS":"569.009","MEAN_MOTION_DOT":"0.00005505","OBJECT_TYPE":"PAYLOAD","COUNTRY_CODE":"US","CENTER_NAME":"EARTH","ELEMENT_SET_NO":"999","GP_ID":"217905712"},{"MEAN_MOTION_DOT":"0.00002374","CENTER_NAME":"EARTH","COUNTRY_CODE":"US","ELEMENT_SET_NO":"999","GP_ID":"217905962","OBJECT_TYPE":"PAYLOAD","TIME_SYSTEM":"UTC","REF_FRAME":"TEME","APOAPSIS":"574.144","PERIAPSIS":"569.964","SITE":"AFWTR","REV_AT_EPOCH":"6681","FILE":"3657961","TLE_LINE2":"2 49156  69.9998  65.0474 0003007 268.1814  91.9001 14.98331269 66810","RA_OF_ASC_NODE":"65.0474","BSTAR":"0.00020665000000","DECAY_DATE":null,"MEAN_ANOMALY":"91.9001","EPOCH":"2022-11-15T18:51:25.746624","NORAD_CAT_ID":"49156","OBJECT_ID":"2021-082AC","PERIOD":"96.107","RCS_SIZE":"LARGE","OBJECT_NAME":"STARLINK-3085","LAUNCH_DATE":"2021-09-14","SEMIMAJOR_AXIS":"6950.189","MEAN_MOTION":"14.98331269","MEAN_MOTION_DDOT":"0.0000000000000","ECCENTRICITY":"0.00030070","ARG_OF_PERICENTER":"268.1814","TLE_LINE1":"1 49156U 21082AC  22319.78571466  .00002374  00000-0  20665-3 0  9997","INCLINATION":"69.9998","CLASSIFICATION_TYPE":"U","EPHEMERIS_TYPE":"0","MEAN_ELEMENT_THEORY":"SGP4"},{"CLASSIFICATION_TYPE":"U","EPHEMERIS_TYPE":"0","INCLINATION":"70.0002","MEAN_ELEMENT_THEORY":"SGP4","TLE_LINE1":"1 49157U 21082AD  22319.83208995  .00000035  00000-0  10695-4 0  9993","ECCENTRICITY":"0.00035820","ARG_OF_PERICENTER":"228.4253","SEMIMAJOR_AXIS":"6950.184","MEAN_MOTION":"14.98332944","MEAN_MOTION_DDOT":"0.0000000000000","PERIOD":"96.107","OBJECT_ID":"2021-082AD","OBJECT_NAME":"STARLINK-3051","RCS_SIZE":"LARGE","LAUNCH_DATE":"2021-09-14","BSTAR":"0.00001069500000","EPOCH":"2022-11-15T19:58:12.571680","MEAN_ANOMALY":"131.6600","NORAD_CAT_ID":"49157","DECAY_DATE":null,"REV_AT_EPOCH":"6634","SITE":"AFWTR","TLE_LINE2":"2 49157  70.0002  84.9253 0003582 228.4253 131.6600 14.98332944 66345","RA_OF_ASC_NODE":"84.9253","FILE":"3657961","TIME_SYSTEM":"UTC","REF_FRAME":"TEME","APOAPSIS":"574.538","PERIAPSIS":"569.559","MEAN_MOTION_DOT":"0.00000035","OBJECT_TYPE":"PAYLOAD","COUNTRY_CODE":"US","ELEMENT_SET_NO":"999","CENTER_NAME":"EARTH","GP_ID":"217906214"},{"TLE_LINE2":"2 49158  69.9996  85.1192 0003493 260.0560 100.0205 14.98324979 66333","RA_OF_ASC_NODE":"85.1192","FILE":"3657961","REV_AT_EPOCH":"6633","SITE":"AFWTR","EPOCH":"2022-11-15T18:15:12.263904","MEAN_ANOMALY":"100.0205","NORAD_CAT_ID":"49158","DECAY_DATE":null,"BSTAR":"0.00011166000000","OBJECT_TYPE":"PAYLOAD","ELEMENT_SET_NO":"999","COUNTRY_CODE":"US","CENTER_NAME":"EARTH","GP_ID":"217906964","MEAN_MOTION_DOT":"0.00001239","APOAPSIS":"574.501","PERIAPSIS":"569.646","TIME_SYSTEM":"UTC","REF_FRAME":"TEME","TLE_LINE1":"1 49158U 21082AE  22319.76055861  .00001239  00000-0  11166-3 0  9998","ECCENTRICITY":"0.00034930","ARG_OF_PERICENTER":"260.0560","MEAN_ELEMENT_THEORY":"SGP4","EPHEMERIS_TYPE":"0","CLASSIFICATION_TYPE":"U","INCLINATION":"69.9996","OBJECT_NAME":"STARLINK-3083","RCS_SIZE":"LARGE","LAUNCH_DATE":"2021-09-14","PERIOD":"96.107","OBJECT_ID":"2021-082AE","MEAN_MOTION_DDOT":"0.0000000000000","SEMIMAJOR_AXIS":"6950.208","MEAN_MOTION":"14.98324979"},{"LAUNCH_DATE":"2021-09-14","RCS_SIZE":"LARGE","OBJECT_NAME":"STARLINK-3056","PERIOD":"96.107","OBJECT_ID":"2021-082AF","MEAN_MOTION_DDOT":"0.0000000000000","MEAN_MOTION":"14.98329898","SEMIMAJOR_AXIS":"6950.193","TLE_LINE1":"1 49159U 21082AF  22319.79737801  .00000685  00000-0  65223-4 0  9991","ARG_OF_PERICENTER":"244.1507","ECCENTRICITY":"0.00032880","MEAN_ELEMENT_THEORY":"SGP4","CLASSIFICATION_TYPE":"U","EPHEMERIS_TYPE":"0","INCLINATION":"69.9999","OBJECT_TYPE":"PAYLOAD","GP_ID":"217905213","COUNTRY_CODE":"US","ELEMENT_SET_NO":"999","CENTER_NAME":"EARTH","MEAN_MOTION_DOT":"0.00000685","PERIAPSIS":"569.773","APOAPSIS":"574.343","REF_FRAME":"TEME","TIME_SYSTEM":"UTC","RA_OF_ASC_NODE":"105.0365","TLE_LINE2":"2 49159  69.9999 105.0365 0003288 244.1507 115.9313 14.98329898 65842","FILE":"3657961","REV_AT_EPOCH":"6584","SITE":"AFWTR","NORAD_CAT_ID":"49159","MEAN_ANOMALY":"115.9313","EPOCH":"2022-11-15T19:08:13.460064","DECAY_DATE":null,"BSTAR":"0.00006522300000"},{"APOAPSIS":"574.332","PERIAPSIS":"569.784","TIME_SYSTEM":"UTC","REF_FRAME":"TEME","OBJECT_TYPE":"PAYLOAD","COUNTRY_CODE":"US","CENTER_NAME":"EARTH","ELEMENT_SET_NO":"999","GP_ID":"217905463","MEAN_MOTION_DOT":"0.00000412","MEAN_ANOMALY":"107.2593","EPOCH":"2022-11-15T18:54:29.589408","NORAD_CAT_ID":"49160","DECAY_DATE":null,"BSTAR":"0.00004236200000","TLE_LINE2":"2 49160  69.9992 105.0477 0003272 252.8208 107.2593 14.98330045 65815","FILE":"3657961","RA_OF_ASC_NODE":"105.0477","REV_AT_EPOCH":"6581","SITE":"AFWTR","MEAN_MOTION_DDOT":"0.0000000000000","SEMIMAJOR_AXIS":"6950.193","MEAN_MOTION":"14.98330045","OBJECT_NAME":"STARLINK-3095","RCS_SIZE":"LARGE","LAUNCH_DATE":"2021-09-14","PERIOD":"96.107","OBJECT_ID":"2021-082AG","MEAN_ELEMENT_THEORY":"SGP4","CLASSIFICATION_TYPE":"U","EPHEMERIS_TYPE":"0","INCLINATION":"69.9992","TLE_LINE1":"1 49160U 21082AG  22319.78784247  .00000412  00000-0  42362-4 0  9995","ECCENTRICITY":"0.00032720","ARG_OF_PERICENTER":"252.8208"},{"LAUNCH_DATE":"2021-09-14","RCS_SIZE":"LARGE","OBJECT_NAME":"STARLINK-3080","OBJECT_ID":"2021-082AH","PERIOD":"96.107","MEAN_MOTION_DDOT":"0.0000000000000","MEAN_MOTION":"14.98327870","SEMIMAJOR_AXIS":"6950.199","ARG_OF_PERICENTER":"248.0080","ECCENTRICITY":"0.00034820","TLE_LINE1":"1 49161U 21082AH  22319.79261466 -.00001110  00000-0 -85273-4 0  9996","MEAN_ELEMENT_THEORY":"SGP4","INCLINATION":"69.9985","CLASSIFICATION_TYPE":"U","EPHEMERIS_TYPE":"0","GP_ID":"217906714","COUNTRY_CODE":"US","CENTER_NAME":"EARTH","ELEMENT_SET_NO":"999","OBJECT_TYPE":"PAYLOAD","MEAN_MOTION_DOT":"-0.00001110","PERIAPSIS":"569.644","APOAPSIS":"574.485","TIME_SYSTEM":"UTC","REF_FRAME":"TEME","FILE":"3657961","TLE_LINE2":"2 49161  69.9985 105.0257 0003482 248.0080 112.0709 14.98327870 65828","RA_OF_ASC_NODE":"105.0257","SITE":"AFWTR","REV_AT_EPOCH":"6582","DECAY_DATE":null,"NORAD_CAT_ID":"49161","EPOCH":"2022-11-15T19:01:21.906624","MEAN_ANOMALY":"112.0709","BSTAR":"-0.00008527300000"},{"RA_OF_ASC_NODE":"105.0544","TLE_LINE2":"2 49162  69.9991 105.0544 0003139 266.7694  93.3106 14.98341227 65905","FILE":"3657961","SITE":"AFWTR","REV_AT_EPOCH":"6590","DECAY_DATE":null,"NORAD_CAT_ID":"49162","EPOCH":"2022-11-15T18:47:36.950784","MEAN_ANOMALY":"93.3106","BSTAR":"0.00010856000000","GP_ID":"217906465","CENTER_NAME":"EARTH","COUNTRY_CODE":"US","ELEMENT_SET_NO":"999","OBJECT_TYPE":"PAYLOAD","MEAN_MOTION_DOT":"0.00001203","PERIAPSIS":"569.842","APOAPSIS":"574.205","REF_FRAME":"TEME","TIME_SYSTEM":"UTC","ARG_OF_PERICENTER":"266.7694","ECCENTRICITY":"0.00031390","TLE_LINE1":"1 49162U 21082AJ  22319.78306656  .00001203  00000-0  10856-3 0  9992","MEAN_ELEMENT_THEORY":"SGP4","INCLINATION":"69.9991","EPHEMERIS_TYPE":"0","CLASSIFICATION_TYPE":"U","LAUNCH_DATE":"2021-09-14","RCS_SIZE":"LARGE","OBJECT_NAME":"STARLINK-3082","OBJECT_ID":"2021-082AJ","PERIOD":"96.106","MEAN_MOTION_DDOT":"0.0000000000000","MEAN_MOTION":"14.98341227","SEMIMAJOR_AXIS":"6950.158"},{"BSTAR":"-0.00002104700000","EPOCH":"2022-11-15T19:44:28.266432","MEAN_ANOMALY":"96.8676","NORAD_CAT_ID":"49163","DECAY_DATE":null,"REV_AT_EPOCH":"6640","SITE":"AFWTR","TLE_LINE2":"2 49163  69.9997  84.9642 0003216 263.2117  96.8676 14.98327625 66406","RA_OF_ASC_NODE":"84.9642","FILE":"3657961","REF_FRAME":"TEME","TIME_SYSTEM":"UTC","APOAPSIS":"574.300","PERIAPSIS":"569.830","MEAN_MOTION_DOT":"-0.00000344","OBJECT_TYPE":"PAYLOAD","COUNTRY_CODE":"US","CENTER_NAME":"EARTH","ELEMENT_SET_NO":"999","GP_ID":"217905713","EPHEMERIS_TYPE":"0","CLASSIFICATION_TYPE":"U","INCLINATION":"69.9997","MEAN_ELEMENT_THEORY":"SGP4","TLE_LINE1":"1 49163U 21082AK  22319.82254938 -.00000344  00000-0 -21047-4 0  9995","ECCENTRICITY":"0.00032160","ARG_OF_PERICENTER":"263.2117","SEMIMAJOR_AXIS":"6950.200","MEAN_MOTION":"14.98327625","MEAN_MOTION_DDOT":"0.0000000000000","PERIOD":"96.107","OBJECT_ID":"2021-082AK","RCS_SIZE":"LARGE","OBJECT_NAME":"STARLINK-3088","LAUNCH_DATE":"2021-09-14"},{"OBJECT_TYPE":"PAYLOAD","COUNTRY_CODE":"US","CENTER_NAME":"EARTH","ELEMENT_SET_NO":"999","GP_ID":"217905963","MEAN_MOTION_DOT":"0.00001353","APOAPSIS":"574.269","PERIAPSIS":"569.905","TIME_SYSTEM":"UTC","REF_FRAME":"TEME","TLE_LINE2":"2 49164  70.0000  84.9814 0003139 256.3701 103.7109 14.98320536 66416","RA_OF_ASC_NODE":"84.9814","FILE":"3657961","REV_AT_EPOCH":"6641","SITE":"AFWTR","EPOCH":"2022-11-15T19:30:44.295552","MEAN_ANOMALY":"103.7109","NORAD_CAT_ID":"49164","DECAY_DATE":null,"BSTAR":"0.00012122000000","RCS_SIZE":"LARGE","OBJECT_NAME":"STARLINK-3106","LAUNCH_DATE":"2021-09-14","PERIOD":"96.108","OBJECT_ID":"2021-082AL","MEAN_MOTION_DDOT":"0.0000000000000","SEMIMAJOR_AXIS":"6950.222","MEAN_MOTION":"14.98320536","TLE_LINE1":"1 49164U 21082AL  22319.81301268  .00001353  00000-0  12122-3 0  9996","ECCENTRICITY":"0.00031390","ARG_OF_PERICENTER":"256.3701","MEAN_ELEMENT_THEORY":"SGP4","EPHEMERIS_TYPE":"0","CLASSIFICATION_TYPE":"U","INCLINATION":"70.0000"}];
